NORAD_CAT_ID,OBJECT_NAME,OBJECT_TYPE,EPOCH,MEAN_MOTION,ECCENTRICITY,INCLINATION,RA_OF_ASC_NODE,ARG_OF_PERICENTER,MEAN_ANOMALY,BSTAR,MEAN_MOTION_DOT,MEAN_MOTION_DDOT,TLE_LINE0,TLE_LINE1,TLE_LINE2,SEMIMAJOR_AXIS,PERIOD,APOGEE,PERIGEE,DECAYED
54094.0,STARLINK-5219,PAYLOAD,2024-05-21 04:07:42,15.08843772,0.0001704,53.2172,45.6581,120.493,239.623,0.00064255,9.954e-05,0.0,0 STARLINK-5219,1 54094U 22136AV  24142.17202222  .00009954  00000-0  64255-3 0  9999,2 54094  53.2172  45.6581 0001704 120.4930 239.6230 15.08843772 88190,6917.869,95.437,540.913,538.555,0.0
54094.0,STARLINK-5219,PAYLOAD,2024-05-21 21:36:56,15.08845361,0.000295,53.2178,42.3869,144.841,215.2778,0.00026159,3.878e-05,0.0,0 STARLINK-5219,1 54094U 22136AV  24142.90065953  .00003878  00000-0  26159-3 0  9998,2 54094  53.2178  42.3869 0002950 144.8410 215.2778 15.08845361 87839,6917.864,95.437,541.77,537.688,0.0
54094.0,STARLINK-5219,PAYLOAD,2024-05-22 02:23:06,15.08851773,0.000158,53.2179,41.4898,106.5151,253.6015,0.0005186,7.978e-05,0.0,0 STARLINK-5219,1 54094U 22136AV  24143.09938121  .00007978  00000-0  51860-3 0  9997,2 54094  53.2179  41.4898 0001580 106.5151 253.6015 15.08851773 88337,6917.844,95.437,540.802,538.616,0.0
54094.0,STARLINK-5219,PAYLOAD,2024-05-22 05:33:52,15.08858625,0.0001431,53.2181,40.8938,85.926,274.1896,0.00070488,0.00010954,0.0,0 STARLINK-5219,1 54094U 22136AV  24143.23185940  .00010954  00000-0  70488-3 0  9991,2 54094  53.2181  40.8938 0001431  85.9260 274.1896 15.08858625 87881,6917.823,95.436,540.678,538.699,0.0
54094.0,STARLINK-5219,PAYLOAD,2024-05-22 21:27:44,15.08833772,0.0001163,53.2186,37.9264,85.9021,274.2104,-1.7861e-05,-5.72e-06,0.0,0 STARLINK-5219,1 54094U 22136AV  24143.89426490 -.00000572  00000-0 -17861-4 0  9995,2 54094  53.2186  37.9264 0001163  85.9021 274.2104 15.08833772 88455,6917.899,95.438,540.569,538.96,0.0
54094.0,STARLINK-5219,PAYLOAD,2024-05-23 02:13:53,15.08852293,0.0001514,53.2188,37.0344,88.7342,271.3823,0.00040467,6.16e-05,0.0,0 STARLINK-5219,1 54094U 22136AV  24144.09298166  .00006160  00000-0  40467-3 0  9999,2 54094  53.2188  37.0344 0001514  88.7342 271.3823 15.08852293 88482,6917.843,95.437,540.755,538.66,0.0
54094.0,STARLINK-5219,PAYLOAD,2024-05-23 21:18:31,15.08840104,0.0001565,53.2187,33.4578,80.4046,279.7123,9.4558e-05,1.217e-05,0.0,0 STARLINK-5219,1 54094U 22136AV  24144.88786386  .00001217  00000-0  94558-4 0  9991,2 54094  53.2187  33.4578 0001565  80.4046 279.7123 15.08840104 88603,6917.88,95.438,540.828,538.662,0.0
54094.0,STARLINK-5219,PAYLOAD,2024-05-24 02:04:40,15.08847758,0.0001771,53.2183,32.5664,70.1111,290.0071,0.00021523,3.14e-05,0.0,0 STARLINK-5219,1 54094U 22136AV  24145.08658301  .00003140  00000-0  21523-3 0  9997,2 54094  53.2183  32.5664 0001771  70.1111 290.0071 15.08847758 88164,6917.857,95.437,540.947,538.497,0.0
54094.0,STARLINK-5219,PAYLOAD,2024-05-24 22:44:41,15.08849906,0.000122,53.2166,28.7155,82.4368,277.6763,0.00025232,3.731e-05,0.0,0 STARLINK-5219,1 54094U 22136AV  24145.94770426  .00003731  00000-0  25232-3 0  9992,2 54094  53.2166  28.7155 0001220  82.4368 277.6763 15.08849906 88296,6917.85,95.437,540.559,538.871,0.0
54094.0,STARLINK-5219,PAYLOAD,2024-05-25 21:00:05,15.08844473,0.0001367,53.2165,24.5505,111.4309,248.6829,0.00012514,1.704e-05,0.0,0 STARLINK-5219,1 54094U 22136AV  24146.87506668  .00001704  00000-0  12514-3 0  9997,2 54094  53.2165  24.5505 0001367 111.4309 248.6829 15.08844473 88901,6917.867,95.437,540.677,538.786,0.0
54094.0,STARLINK-5219,PAYLOAD,2024-05-25 22:35:34,15.08673423,0.0001011,53.2168,24.2644,2.3179,357.7817,-0.0031991,-0.00050612,0.0,0 STARLINK-5219,1 54094U 22136AV  24146.94136898 -.00050612  00000-0 -31991-2 0  9992,2 54094  53.2168  24.2644 0001011   2.3179 357.7817 15.08673423 88919,6918.39,95.448,540.954,539.555,0.0
54094.0,STARLINK-5219,PAYLOAD,2024-05-26 06:32:24,15.08846151,0.0001275,53.2169,22.7664,92.8193,267.2945,0.00019261,2.779e-05,0.0,0 STARLINK-5219,1 54094U 22136AV  24147.27250660  .00002779  00000-0  19261-3 0  9999,2 54094  53.2169  22.7664 0001275  92.8193 267.2945 15.08846151 88969,6917.862,95.437,540.609,538.845,0.0
54094.0,STARLINK-5219,PAYLOAD,2024-05-26 22:26:21,15.08710542,7.98e-05,53.2177,19.8048,31.5102,328.5938,-0.0019695,-0.00031385,0.0,0 STARLINK-5219,1 54094U 22136AV  24147.93496917 -.00031385  00000-0 -19695-2 0  9996,2 54094  53.2177  19.8048 0000798  31.5102 328.5938 15.08710542 88596,6918.276,95.446,540.693,539.589,0.0
54094.0,STARLINK-5219,PAYLOAD,2024-05-27 07:58:34,15.08851705,0.0001543,53.2177,18.0045,87.6288,272.4881,0.00019664,2.844e-05,0.0,0 STARLINK-5219,1 54094U 22136AV  24148.33233874  .00002844  00000-0  19664-3 0  9995,2 54094  53.2177  18.0045 0001543  87.6288 272.4881 15.08851705 89121,6917.845,95.437,540.777,538.642,0.0
54094.0,STARLINK-5219,PAYLOAD,2024-05-27 20:41:39,15.08840312,0.0001569,53.2184,15.6229,109.377,250.7392,9.6183e-06,-1.35e-06,0.0,0 STARLINK-5219,1 54094U 22136AV  24148.86226499 -.00000135  00000-0  96183-5 0  9993,2 54094  53.2184  15.6229 0001569 109.3770 250.7392 15.08840312 89209,6917.879,95.438,540.83,538.659,0.0
54094.0,STARLINK-5219,PAYLOAD,2024-05-27 22:17:02,15.0884088,0.000134,53.2176,15.3242,98.1898,261.9246,2.8713e-05,1.69e-06,0.0,0 STARLINK-5219,1 54094U 22136AV  24148.92850488  .00000169  00000-0  28713-4 0  9990,2 54094  53.2176  15.3242 0001340  98.1898 261.9246 15.08840880 88745,6917.878,95.437,540.67,538.816,0.0
54094.0,STARLINK-5219,PAYLOAD,2024-05-28 07:49:21,15.08845711,0.0001551,53.2178,13.5389,123.434,236.6801,-0.00011847,-2.173e-05,0.0,0 STARLINK-5219,1 54094U 22136AV  24149.32594063 -.00002173  00000-0 -11847-3 0  9997,2 54094  53.2178  13.5389 0001551 123.4340 236.6801 15.08845711 88808,6917.863,95.437,540.801,538.655,0.0
54094.0,STARLINK-5219,PAYLOAD,2024-05-28 20:32:28,15.08832237,0.000143,53.2186,11.1611,98.7961,261.3193,-8.065e-05,-1.571e-05,0.0,0 STARLINK-5219,1 54094U 22136AV  24149.85588020 -.00001571  00000-0 -80650-4 0  9991,2 54094  53.2186  11.1611 0001430  98.7961 261.3193 15.08832237 89357,6917.904,95.438,540.758,538.78,0.0
54094.0,STARLINK-5219,PAYLOAD,2024-05-28 22:07:51,15.08834768,0.0001412,53.219,10.8678,91.2015,268.9139,-5.0361e-05,-1.089e-05,0.0,0 STARLINK-5219,1 54094U 22136AV  24149.92211811 -.00001089  00000-0 -50361-4 0  9990,2 54094  53.2190  10.8678 0001412  91.2015 268.9139 15.08834768 88891,6917.896,95.438,540.738,538.785,0.0
54094.0,STARLINK-5219,PAYLOAD,2024-05-28 23:43:14,15.08834842,0.0001426,53.2189,10.5697,89.0388,271.0768,-4.5557e-05,-1.013e-05,0.0,0 STARLINK-5219,1 54094U 22136AV  24149.98835830 -.00001013  00000-0 -45557-4 0  9997,2 54094  53.2189  10.5697 0001426  89.0388 271.0768 15.08834842 88908,6917.896,95.438,540.748,538.775,0.0
54094.0,STARLINK-5219,PAYLOAD,2024-05-29 20:23:13,15.08853417,0.000115,53.2173,6.7036,81.2231,278.8891,0.00017692,2.53e-05,0.0,0 STARLINK-5219,1 54094U 22136AV  24150.84946410  .00002530  00000-0  17692-3 0  9992,2 54094  53.2173   6.7036 0001150  81.2231 278.8891 15.08853417 89508,6917.839,95.437,540.5,538.909,0.0
54094.0,STARLINK-5219,PAYLOAD,2024-05-29 21:58:36,15.08856746,0.0001202,53.2179,6.4062,84.5116,275.6013,0.0002227,3.26e-05,0.0,0 STARLINK-5219,1 54094U 22136AV  24150.91570185  .00003260  00000-0  22270-3 0  9991,2 54094  53.2179   6.4062 0001202  84.5116 275.6013 15.08856746 89044,6917.829,95.436,540.526,538.863,0.0
54094.0,STARLINK-5219,PAYLOAD,2024-05-30 13:52:28,15.08848085,0.0001103,53.2157,3.4353,101.2538,258.8578,0.00024091,3.549e-05,0.0,0 STARLINK-5219,1 54094U 22136AV  24151.57810963  .00003549  00000-0  24091-3 0  9998,2 54094  53.2157   3.4353 0001103 101.2538 258.8578 15.08848085 89614,6917.856,95.437,540.484,538.958,0.0
54094.0,STARLINK-5219,PAYLOAD,2024-05-30 21:49:24,15.08854504,0.000115,53.2168,1.9479,93.2243,266.8881,0.00040634,6.187e-05,0.0,0 STARLINK-5219,1 54094U 22136AV  24151.90930863  .00006187  00000-0  40634-3 0  9999,2 54094  53.2168   1.9479 0001150  93.2243 266.8881 15.08854504 89195,6917.836,95.437,540.497,538.906,0.0
54094.0,STARLINK-5219,PAYLOAD,2024-05-30 23:24:47,15.08852429,0.0001245,53.2171,1.6509,79.4466,280.6666,0.00040541,6.172e-05,0.0,0 STARLINK-5219,1 54094U 22136AV  24151.97554914  .00006172  00000-0  40541-3 0  9996,2 54094  53.2171   1.6509 0001245  79.4466 280.6666 15.08852429 89209,6917.842,95.437,540.569,538.846,0.0
54094.0,STARLINK-5219,PAYLOAD,2024-05-31 20:04:47,15.08852958,0.0001201,53.2168,357.7839,92.5823,267.5307,0.00057662,8.904e-05,0.0,0 STARLINK-5219,1 54094U 22136AV  24152.83666627  .00008904  00000-0  57662-3 0  9994,2 54094  53.2168 357.7839 0001201  92.5823 267.5307 15.08852958 89800,6917.841,95.437,540.537,538.875,0.0
54094.0,STARLINK-5219,PAYLOAD,2024-06-01 13:34:02,15.08838366,0.0001493,53.2198,354.5128,103.69,256.4259,0.00017781,2.543e-05,0.0,0 STARLINK-5219,1 54094U 22136AV  24153.56531177  .00002543  00000-0  17781-3 0  9997,2 54094  53.2198 354.5128 0001493 103.6900 256.4259 15.08838366 89914,6917.885,95.438,540.783,538.718,0.0
54094.0,STARLINK-5219,PAYLOAD,2024-06-01 19:55:35,15.08832321,0.0001353,53.2198,353.326,91.2921,268.8226,7.0314e-05,8.31e-06,0.0,0 STARLINK-5219,1 54094U 22136AV  24153.83027584  .00000831  00000-0  70314-4 0  9999,2 54094  53.2198 353.3260 0001353  91.2921 268.8226 15.08832321 89958,6917.904,95.438,540.705,538.833,0.0
54094.0,STARLINK-5219,PAYLOAD,2024-06-03 19:37:09,15.08847803,0.0001467,53.2182,344.404,94.2193,265.8967,0.00028196,4.203e-05,0.0,0 STARLINK-5219,1 54094U 22136AV  24155.81746933  .00004203  00000-0  28196-3 0  9992,2 54094  53.2182 344.4040 0001467  94.2193 265.8967 15.08847803 90253,6917.857,95.437,540.736,538.707,0.0
54094.0,STARLINK-5219,PAYLOAD,2024-06-04 05:09:27,15.08848942,0.0001299,53.2177,342.6192,88.6983,271.4158,0.00017963,2.573e-05,0.0,0 STARLINK-5219,1 54094U 22136AV  24156.21490642  .00002573  00000-0  17963-3 0  9998,2 54094  53.2177 342.6192 0001299  88.6983 271.4158 15.08848942 89845,6917.853,95.437,540.617,538.819,0.0
